UNKNOWN                 
1 82893U          25268.76422173  .00013934  00000+0  54333-2 0  9994
2 82893  98.9627  21.4803 0025354 263.7676  96.0617 14.29596596412829
UNKNOWN                 
1 82912U          25268.51703560  .00005356  00000+0  22128-2 0  9997
2 82912  65.8386 354.4286 0779514 304.1865  48.7619 13.26762112568940
UNKNOWN                 
1 82961U          25266.17641257  .00028166  00000+0  43309-1 0  9992
2 82961  99.9139  64.6847 0421900 196.0194 162.7231 13.20838454545069
UNKNOWN                 
1 82965U          25268.47641617  .00001569  00000+0  21751-2 0  9997
2 82965 100.1210 345.4764 0001743 157.9215 202.1999 13.59763148513812
UNKNOWN                 
1 83903U          25270.65757642  .00000052  00000+0  00000+0 0  9996
2 83903   6.3753 291.2769 0125489 248.7822 123.2577  0.99111552 42913
UNKNOWN                 
1 83934U          25270.52610252 -.00000234  00000+0  00000+0 0  9994
2 83934   5.9591 297.9954 0236020 269.3799 103.7708  1.02663533 44509
UNKNOWN                 
1 84006U          25270.81126581 -.00000051  00000+0  00000+0 0  9991
2 84006  22.5974 192.8073 6122156  34.3237 353.0894  2.16232064 82585
UNKNOWN                 
1 84188U          25271.15970394  .00037638  00000+0  68062-1 0  9993
2 84188  64.9162 318.6737 3851110  27.1716 348.6698  7.20777886 35742
UNKNOWN                 
1 84292U          25269.84893801  .00007086  00000+0  37729-2 0  9990
2 84292  23.8274 266.8605 4573495  54.7467 340.0287  6.20727583223287
UNKNOWN                 
1 84407U          25255.57438424 -.00000168  00000+0  16425-1 0  9993
2 84407  19.5725 349.3225 7202856  12.8638 358.4884  2.05743061 73996
UNKNOWN                 
1 84575U          25268.17774089 -.00000458  00000+0 -16870-1 0  9996
2 84575  18.1098 184.3433 7112367 334.7808   3.1859  2.19890390 63730
UNKNOWN                 
1 84932U          25271.21433256  .00001167  00000+0  10676-1 0  9994
2 84932   2.3095 287.4181 6562185 331.6862 152.6040  2.99788140129514
UNKNOWN                 
1 85001U          25248.15486111 -.00000419  00000+0  00000+0 0  9995
2 85001  28.5167  22.1078 6968193 127.6048  38.5859  2.69831137    14
UNKNOWN                 
1 85004U          25269.19886486  .00002679  00000+0  83889-3 0  9993
2 85004  98.4102 241.4502 0048349  36.7819 338.3555 14.40772174619738
UNKNOWN                 
1 85010U          25264.40569852  .00001106  00000+0  12051-2 0  9990
2 85010  99.2567 128.8327 0026137 105.0008  73.8759 13.74788802592607
UNKNOWN                 
1 85015U          25268.50263126  .00001098  00000+0  22396-3 0  9999
2 85015  74.0491 187.9030 0014085 116.6698 243.5913 14.62139302631175
UNKNOWN                 
1 85023U          25269.27997078  .00043380  00000+0  74894-2 0  9992
2 85023  99.8544 268.6378 0003523 120.2441 250.5406 14.68242682617443
UNKNOWN                 
1 85027U          25270.45544883  .00000287  00000+0  34405-3 0  9994
2 85027  66.0403 288.3147 0183536 230.2931 128.1831 13.74198353594132
UNKNOWN                 
1 85047U          25269.59030484  .00014930  00000+0  26501-1 0  9992
2 85047 102.2959 218.7775 0076604 193.2633 166.6473 13.41252000566302
UNKNOWN                 
1 85061U          25266.50655628  .00004813  00000+0  18729-1 0  9991
2 85061 102.3883 243.0493 0297505 349.3952 134.9120 12.76274673545543
UNKNOWN                 
1 85100U          25269.56478709  .00000758  00000+0  24576-3 0  9990
2 85100  74.0481   5.4518 0013489 255.1134 120.2803 14.40609367622230
UNKNOWN                 
1 85106U          25269.51350659  .00000981  00000+0  11202-2 0  9993
2 85106 100.0560   6.5920 0010036 205.5890 172.0348 13.72750605592473
UNKNOWN                 
1 85151U          25270.11279579  .00028111  00000+0  42619-2 0  9993
2 85151  98.4118 131.0612 0011740  26.5692 333.6114 14.74021835468228
UNKNOWN                 
1 85210U          25270.62810481  .00001316  00000+0  12800-2 0  9995
2 85210  99.8512  49.5780 0218236 149.1704 277.4187 13.71363727591723
UNKNOWN                 
1 85217U          25271.23404933  .00003037  00000+0  81728-3 0  9999
2 85217  98.0295  10.6088 0209536 356.7706   3.2116 14.36485090617018
UNKNOWN                 
1 85237U          25268.41963484  .00007641  00000+0  16714-2 0  9995
2 85237  65.5345  60.1801 0511629  63.8588 301.4183 13.99620953597382
UNKNOWN                 
1 85238U          25269.59847434  .00000120  00000+0  13313-3 0  9990
2 85238  99.0499 201.0285 0064216  49.8437 125.9701 13.88319960600133
UNKNOWN                 
1 85246U          25268.97249266  .00001812  00000+0  66075-3 0  9991
2 85246  97.9897 279.7874 0224451 172.9452 187.4978 14.21113500612021
UNKNOWN                 
1 85373U          25264.93514071  .00002746  00000+0  19022-2 0  9999
2 85373 100.4281 289.7442 0048518  95.3177  22.7691 13.99460755600684
UNKNOWN                 
1 87014U          25261.37452285  .00002385  00000+0  37179-2 0  9998
2 87014 100.4988 220.9201 0052851  75.8234  78.3446 13.51251379579389
UNKNOWN                 
1 87029U          25245.07212326  .00001457  00000+0  91630-3 0  9995
2 87029  98.7698 283.8894 0083094 174.3229 185.8900 14.04181410578734
UNKNOWN                 
1 87042U          25269.37967994  .00001108  00000+0  68467-3 0  9992
2 87042  98.7245 315.3510 0042205 313.9101  45.8587 14.06912392543081
UNKNOWN                 
1 87051U          25270.87166609  .00007878  00000+0  26170-2 0  9997
2 87051  65.7274  75.1406 0723480 175.9062 184.8373 13.45288968578379
UNKNOWN                 
1 87054U          25266.87383540  .00003039  00000+0  17340-2 0  9994
2 87054 100.0972 136.5261 0011659 200.9355 159.1336 14.10553738605067
UNKNOWN                 
1 87071U          25268.39892328  .00005621  00000+0  20018-2 0  9996
2 87071  61.2182 144.4352 0490541 198.4028 159.8696 13.84202143591639
UNKNOWN                 
1 87113U          25271.22067567  .00954466  00000+0  83437-2 0  9992
2 87113  65.6093 304.2098 0053564 250.1455 109.3923 15.64200074624325
UNKNOWN                 
1 87129U          25270.69716809  .00000339  00000+0  27806-2 0  9998
2 87129 102.2650   0.7567 0033828 221.6606 138.1881 12.42773165537224
UNKNOWN                 
1 87159U          25266.41166591  .00002448  00000+0  28602-2 0  9991
2 87159  90.3449  66.5077 0107955 135.4523 225.5378 13.65788410545720
UNKNOWN                 
1 87163U          25270.43774526  .00006653  00000+0  20233-2 0  9990
2 87163  65.6011  64.3957 0644279  98.9548 268.4958 13.63312273567118
UNKNOWN                 
1 87164U          25268.49272359  .00010322  00000+0  21554-2 0  9996
2 87164  65.2040 194.7616 0097094  92.7647 268.4570 14.57285155624369
UNKNOWN                 
1 87204U          25270.39418880  .00003570  00000+0  14181-2 0  9999
2 87204  98.5433 132.7586 0044736 187.4241 172.6284 14.28792014614535
UNKNOWN                 
1 87211U          25268.26414691  .00008096  00000+0  22640-2 0  9993
2 87211  99.0835 262.5173 0055482  33.8493 340.8123 14.45522727696433
UNKNOWN                 
1 87214U          25269.25192819  .00003307  00000+0  29686-2 0  9998
2 87214 100.3250 260.3425 0074392  89.8659 271.1016 13.83750951589526
UNKNOWN                 
1 87237U          25270.63535821  .00000679  00000+0  54490-3 0  9992
2 87237  99.2678 326.2489 0104453 129.9025  21.4775 13.91657592601178
UNKNOWN                 
1 87239U          25270.67249423  .00010364  00000+0  26773-2 0  9992
2 87239  82.8748 147.3464 0020296 290.1797  69.7217 14.49755701616841
UNKNOWN                 
1 87245U          25269.96482971  .00004552  00000+0  94092-3 0  9998
2 87245  65.6458 252.9337 0440319 159.5422 237.4754 14.14587012603343
UNKNOWN                 
1 87271U          25270.54108705  .00017245  00000+0  32118-2 0  9996
2 87271  65.7552  80.8910 0426230 114.0821 250.5464 14.20091841601549
UNKNOWN                 
1 87280U          25267.17634040  .00000432  00000+0  78810-3 0  9997
2 87280  64.6147  72.1386 0129160 275.9297  82.7033 13.48441377523120
UNKNOWN                 
1 87293U          25271.22767587  .00006278  00000+0  13170-2 0  9996
2 87293  65.9019 345.6357 0425031  40.8927 322.3230 14.16265302603294
UNKNOWN                 
1 87300U          25259.19722811  .00001278  00000+0  91770-3 0  9996
2 87300 100.0747 232.9461 0028516 163.4193 196.7906 13.98972917600870
UNKNOWN                 
1 87304U          25265.87622466  .00002746  00000+0  41260-3 0  9997
2 87304  74.0164 119.1951 0017298 111.6224 248.6794 14.74942462634553
UNKNOWN                 
1 87320U          25269.71169190  .00001876  00000+0  12186-2 0  9999
2 87320  66.5928 267.9342 0413857 104.8654 259.8624 13.69650828583197
UNKNOWN                 
1 87334U          25270.96813160  .00024463  00000+0  15563-1 0  9994
2 87334  90.0091 271.6715 0073306 119.7734 241.0764 14.02232871376017
UNKNOWN                 
1 87335U          25271.00869564  .00027297  00000+0  16986-1 0  9998
2 87335  89.9954 268.1034 0091009  96.5735 264.5816 14.02724623376346
UNKNOWN                 
1 87405U          25270.60048440  .00003271  00000+0  23524-2 0  9996
2 87405  82.7476 120.1596 0057472 188.9455 171.0694 13.95822060600537
UNKNOWN                 
1 87426U          25269.78704574  .00008799  00000+0  34573-2 0  9999
2 87426  65.7840 182.9904 0064867 325.8091  68.8785 14.28537457611591
UNKNOWN                 
1 87448U          25268.00583976  .00002038  00000+0  16606-2 0  9995
2 87448 100.4598 104.8126 0064509  47.0260 313.6277 13.90258843598290
UNKNOWN                 
1 87456U          25269.34615783  .00009677  00000+0  15239-2 0  9991
2 87456  65.7820 296.1214 0510481  45.0859 319.0484 14.11622833600562
UNKNOWN                 
1 87517U          25265.73453551  .00002857  00000+0  83597-3 0  9997
2 87517  65.8223  70.0156 0673104 345.1520  24.5086 13.60294029581898
